ONEWEB-0704             
1 61609U 24188R   26177.30857648 -.00000551  00000+0 -16143-2 0  9998
2 61609  87.8828  34.4380 0002548 105.4225 254.7184 13.10375256 84483
ONEWEB-0705             
1 61610U 24188S   26177.54273319 -.00000395  00000+0 -11679-2 0  9998
2 61610  87.8829  34.3973 0002790  90.4247 269.7200 13.10369361 76687
ONEWEB-0706             
1 61611U 24188T   26177.60384176  .00000327  00000+0  90160-3 0  9996
2 61611  87.8825  34.3896 0002296  95.6936 264.4453 13.10371131 84613
ONEWEB-0707             
1 61612U 24188U   26177.53425837 -.00000459  00000+0 -13510-2 0  9990
2 61612  87.8834  34.3980 0002340  96.0899 264.0495 13.10375619 84540
ONEWEB-0708             
1 61613U 24188V   26177.55294348  .00000484  00000+0  13490-2 0  9997
2 61613  87.8812  34.4115 0002360  77.6933 282.4458 13.10371088 84521
